{"fetched_at":"2026-07-23T17:55:08.470Z","source":"https://celestrak.org/NORAD/elements/gp.php?GROUP=oneweb&FORMAT=JSON","constellation":"oneweb","records":[{"OBJECT_NAME":"ONEWEB-0315","OBJECT_ID":"2021-075AC","EPOCH":"2026-07-22T19:28:13.132704","CLASSIFICATION_TYPE":"U","MEAN_MOTION":13.12443715,"ECCENTRICITY":0.00014735,"INCLINATION":87.898,"RA_OF_ASC_NODE":343.5636,"ARG_OF_PERICENTER":90.6208,"MEAN_ANOMALY":269.5089,"EPHEMERIS_TYPE":0,"NORAD_CAT_ID":49101,"ELEMENT_SET_NO":999,"REV_AT_EPOCH":23984,"BSTAR":-0.00075056101,"MEAN_MOTION_DOT":-0.00000257,"MEAN_MOTION_DDOT":0},{"OBJECT_NAME":"ONEWEB-0316","OBJECT_ID":"2021-075AD","EPOCH":"2026-07-23T06:37:40.506528","CLASSIFICATION_TYPE":"U","MEAN_MOTION":13.18686517,"ECCENTRICITY":0.00019396,"INCLINATION":87.9202,"RA_OF_ASC_NODE":328.2806,"ARG_OF_PERICENTER":98.6695,"MEAN_ANOMALY":261.4657,"EPHEMERIS_TYPE":0,"NORAD_CAT_ID":49102,"ELEMENT_SET_NO":999,"REV_AT_EPOCH":24196,"BSTAR":-0.00001123714,"MEAN_MOTION_DOT":8e-8,"MEAN_MOTION_DDOT":0},{"OBJECT_NAME":"ONEWEB-0317","OBJECT_ID":"2021-075AE","EPOCH":"2026-07-22T19:33:06.036480","CLASSIFICATION_TYPE":"U","MEAN_MOTION":13.12443936,"ECCENTRICITY":0.00025262,"INCLINATION":87.8977,"RA_OF_ASC_NODE":343.5861,"ARG_OF_PERICENTER":102.7956,"MEAN_ANOMALY":257.3455,"EPHEMERIS_TYPE":0,"NORAD_CAT_ID":49103,"ELEMENT_SET_NO":999,"REV_AT_EPOCH":23986,"BSTAR":-0.00059764908,"MEAN_MOTION_DOT":-0.00000202,"MEAN_MOTION_DDOT":0},{"OBJECT_NAME":"ONEWEB-0318","OBJECT_ID":"2021-075AF","EPOCH":"2026-07-22T17:47:47.047200","CLASSIFICATION_TYPE":"U","MEAN_MOTION":13.18686876,"ECCENTRICITY":0.00017779,"INCLINATION":87.9204,"RA_OF_ASC_NODE":328.3891,"ARG_OF_PERICENTER":95.9976,"MEAN_ANOMALY":264.1358,"EPHEMERIS_TYPE":0,"NORAD_CAT_ID":49104,"ELEMENT_SET_NO":999,"REV_AT_EPOCH":24185,"BSTAR":0.000070725827,"MEAN_MOTION_DOT":4.1e-7,"MEAN_MOTION_DDOT":0},{"OBJECT_NAME":"ONEWEB-0319","OBJECT_ID":"2021-075AG","EPOCH":"2026-07-23T04:00:41.981184","CLASSIFICATION_TYPE":"U","MEAN_MOTION":13.17647634,"ECCENTRICITY":0.00013622,"INCLINATION":87.9152,"RA_OF_ASC_NODE":358.711,"ARG_OF_PERICENTER":86.4809,"MEAN_ANOMALY":273.6479,"EPHEMERIS_TYPE":0,"NORAD_CAT_ID":49105,"ELEMENT_SET_NO":999,"REV_AT_EPOCH":23834,"BSTAR":-0.00012197829,"MEAN_MOTION_DOT":-3.4e-7,"MEAN_MOTION_DDOT":0},{"OBJECT_NAME":"ONEWEB-0323","OBJECT_ID":"2021-075AH","EPOCH":"2026-07-22T15:26:41.845632","CLASSIFICATION_TYPE":"U","MEAN_MOTION":13.12442889,"ECCENTRICITY":0.0001477,"INCLINATION":87.898,"RA_OF_ASC_NODE":343.6022,"ARG_OF_PERICENTER":83.3255,"MEAN_ANOMALY":276.8042,"EPHEMERIS_TYPE":0,"NORAD_CAT_ID":49106,"ELEMENT_SET_NO":999,"REV_AT_EPOCH":23920,"BSTAR":-0.00093307451,"MEAN_MOTION_DOT":-0.00000323,"MEAN_MOTION_DDOT":0},{"OBJECT_NAME":"ONEWEB-0329","OBJECT_ID":"2021-075AJ","EPOCH":"2026-07-22T20:55:26.640768","CLASSIFICATION_TYPE":"U","MEAN_MOTION":13.17647434,"ECCENTRICITY":0.00018611,"INCLINATION":87.9151,"RA_OF_ASC_NODE":358.7713,"ARG_OF_PERICENTER":86.4147,"MEAN_ANOMALY":273.7197,"EPHEMERIS_TYPE":0,"NORAD_CAT_ID":49107,"ELEMENT_SET_NO":999,"REV_AT_EPOCH":23828,"BSTAR":0.00029350057,"MEAN_MOTION_DOT":0.00000127,"MEAN_MOTION_DDOT":0},{"OBJECT_NAME":"ONEWEB-0330","OBJECT_ID":"2021-075AK","EPOCH":"2026-07-21T08:33:32.280768","CLASSIFICATION_TYPE":"U","MEAN_MOTION":13.17647272,"ECCENTRICITY":0.00019534,"INCLINATION":87.9155,"RA_OF_ASC_NODE":359.0832,"ARG_OF_PERICENTER":88.953,"MEAN_ANOMALY":271.1825,"EPHEMERIS_TYPE":0,"NORAD_CAT_ID":49108,"ELEMENT_SET_NO":999,"REV_AT_EPOCH":23812,"BSTAR":0.00021839664,"MEAN_MOTION_DOT":9.8e-7,"MEAN_MOTION_DDOT":0},{"OBJECT_NAME":"ONEWEB-0292","OBJECT_ID":"2021-083A","EPOCH":"2026-07-23T01:05:05.395776","CLASSIFICATION_TYPE":"U","MEAN_MOTION":13.13470814,"ECCENTRICITY":0.00018012,"INCLINATION":87.8978,"RA_OF_ASC_NODE":313.1029,"ARG_OF_PERICENTER":99.1188,"MEAN_ANOMALY":261.0145,"EPHEMERIS_TYPE":0,"NORAD_CAT_ID":49186,"ELEMENT_SET_NO":999,"REV_AT_EPOCH":23563,"BSTAR":0.00016767558,"MEAN_MOTION_DOT":7.4e-7,"MEAN_MOTION_DDOT":0},{"OBJECT_NAME":"ONEWEB-0303","OBJECT_ID":"2021-083B","EPOCH":"2026-07-22T14:04:24.403584","CLASSIFICATION_TYPE":"U","MEAN_MOTION":13.18685451,"ECCENTRICITY":0.00017564,"INCLINATION":87.92,"RA_OF_ASC_NODE":328.4184,"ARG_OF_PERICENTER":95.6068,"MEAN_ANOMALY":264.5264,"EPHEMERIS_TYPE":0,"NORAD_CAT_ID":49187,"ELEMENT_SET_NO":999,"REV_AT_EPOCH":23464,"BSTAR":0.000062581617,"MEAN_MOTION_DOT":3.8e-7,"MEAN_MOTION_DDOT":0},{"OBJECT_NAME":"ONEWEB-0306","OBJECT_ID":"2021-083C","EPOCH":"2026-07-22T13:49:50.774304","CLASSIFICATION_TYPE":"U","MEAN_MOTION":13.18686128,"ECCENTRICITY":0.00021454,"INCLINATION":87.9205,"RA_OF_ASC_NODE":328.4098,"ARG_OF_PERICENTER":99.8317,"MEAN_ANOMALY":260.3058,"EPHEMERIS_TYPE":0,"NORAD_CAT_ID":49188,"ELEMENT_SET_NO":999,"REV_AT_EPOCH":23468,"BSTAR":0.000082169824,"MEAN_MOTION_DOT":4.5e-7,"MEAN_MOTION_DDOT":0},{"OBJECT_NAME":"ONEWEB-0307","OBJECT_ID":"2021-083D","EPOCH":"2026-07-23T00:56:33.457632","CLASSIFICATION_TYPE":"U","MEAN_MOTION":13.13469488,"ECCENTRICITY":0.00018819,"INCLINATION":87.8982,"RA_OF_ASC_NODE":313.102,"ARG_OF_PERICENTER":96.6823,"MEAN_ANOMALY":263.4521,"EPHEMERIS_TYPE":0,"NORAD_CAT_ID":49189,"ELEMENT_SET_NO":999,"REV_AT_EPOCH":23563,"BSTAR":-0.00018461815,"MEAN_MOTION_DOT":-5.5e-7,"MEAN_MOTION_DDOT":0},{"OBJECT_NAME":"ONEWEB-0320","OBJECT_ID":"2021-083E","EPOCH":"2026-07-23T06:42:19.373760","CLASSIFICATION_TYPE":"U","MEAN_MOTION":13.18684574,"ECCENTRICITY":0.00019822,"INCLINATION":87.9194,"RA_OF_ASC_NODE":328.2847,"ARG_OF_PERICENTER":99.1977,"MEAN_ANOMALY":260.9379,"EPHEMERIS_TYPE":0,"NORAD_CAT_ID":49190,"ELEMENT_SET_NO":999,"REV_AT_EPOCH":23473,"BSTAR":0.00011894181,"MEAN_MOTION_DOT":6e-7,"MEAN_MOTION_DDOT":0},{"OBJECT_NAME":"ONEWEB-0321","OBJECT_ID":"2021-083F","EPOCH":"2026-07-23T04:27:08.681760","CLASSIFICATION_TYPE":"U","MEAN_MOTION":13.20771404,"ECCENTRICITY":0.00021695,"INCLINATION":87.9178,"RA_OF_ASC_NODE":267.2612,"ARG_OF_PERICENTER":102.4288,"MEAN_ANOMALY":257.7089,"EPHEMERIS_TYPE":0,"NORAD_CAT_ID":49191,"ELEMENT_SET_NO":999,"REV_AT_EPOCH":24158,"BSTAR":0.00010679366,"MEAN_MOTION_DOT":5.6e-7,"MEAN_MOTION_DDOT":0},{"OBJECT_NAME":"ONEWEB-0322","OBJECT_ID":"2021-083G","EPOCH":"2026-07-23T06:19:33.252384","CLASSIFICATION_TYPE":"U","MEAN_MOTION":13.13471059,"ECCENTRICITY":0.00021817,"INCLINATION":87.8978,"RA_OF_ASC_NODE":313.057,"ARG_OF_PERICENTER":110.5973,"MEAN_ANOMALY":249.539,"EPHEMERIS_TYPE":0,"NORAD_CAT_ID":49192,"ELEMENT_SET_NO":999,"REV_AT_EPOCH":23565,"BSTAR":-0.00052384651,"MEAN_MOTION_DOT":-0.00000179,"MEAN_MOTION_DDOT":0},{"OBJECT_NAME":"ONEWEB-0324","OBJECT_ID":"2021-083H","EPOCH":"2026-07-23T07:52:44.937696","CLASSIFICATION_TYPE":"U","MEAN_MOTION":13.18686926,"ECCENTRICITY":0.00020543,"INCLINATION":87.9202,"RA_OF_ASC_NODE":328.266,"ARG_OF_PERICENTER":95.8391,"MEAN_ANOMALY":264.2975,"EPHEMERIS_TYPE":0,"NORAD_CAT_ID":49193,"ELEMENT_SET_NO":999,"REV_AT_EPOCH":23476,"BSTAR":-0.000038693688,"MEAN_MOTION_DOT":-2e-8,"MEAN_MOTION_DDOT":0},{"OBJECT_NAME":"ONEWEB-0325","OBJECT_ID":"2021-083J","EPOCH":"2026-07-22T19:12:45.101664","CLASSIFICATION_TYPE":"U","MEAN_MOTION":13.1868772,"ECCENTRICITY":0.00018203,"INCLINATION":87.9196,"RA_OF_ASC_NODE":328.3757,"ARG_OF_PERICENTER":100.6795,"MEAN_ANOMALY":259.4542,"EPHEMERIS_TYPE":0,"NORAD_CAT_ID":49194,"ELEMENT_SET_NO":999,"REV_AT_EPOCH":23470,"BSTAR":-0.000097550679,"MEAN_MOTION_DOT":-2.6e-7,"MEAN_MOTION_DDOT":0},{"OBJECT_NAME":"ONEWEB-0326","OBJECT_ID":"2021-083K","EPOCH":"2026-07-22T17:45:34.546752","CLASSIFICATION_TYPE":"U","MEAN_MOTION":13.18686875,"ECCENTRICITY":0.0001624,"INCLINATION":87.9204,"RA_OF_ASC_NODE":328.3882,"ARG_OF_PERICENTER":95.6119,"MEAN_ANOMALY":264.5198,"EPHEMERIS_TYPE":0,"NORAD_CAT_ID":49195,"ELEMENT_SET_NO":999,"REV_AT_EPOCH":23468,"BSTAR":0.000030641172,"MEAN_MOTION_DOT":2.5e-7,"MEAN_MOTION_DDOT":0},{"OBJECT_NAME":"ONEWEB-0327","OBJECT_ID":"2021-083L","EPOCH":"2026-07-22T19:34:26.194080","CLASSIFICATION_TYPE":"U","MEAN_MOTION":13.1868646,"ECCENTRICITY":0.00014973,"INCLINATION":87.9194,"RA_OF_ASC_NODE":328.3747,"ARG_OF_PERICENTER":101.3455,"MEAN_ANOMALY":258.7846,"EPHEMERIS_TYPE":0,"NORAD_CAT_ID":49196,"ELEMENT_SET_NO":999,"REV_AT_EPOCH":23471,"BSTAR":-0.0001435608,"MEAN_MOTION_DOT":-4.4e-7,"MEAN_MOTION_DDOT":0},{"OBJECT_NAME":"ONEWEB-0328","OBJECT_ID":"2021-083M","EPOCH":"2026-07-23T06:04:55.743744","CLASSIFICATION_TYPE":"U","MEAN_MOTION":13.13470233,"ECCENTRICITY":0.00020185,"INCLINATION":87.8991,"RA_OF_ASC_NODE":313.0357,"ARG_OF_PERICENTER":96.2603,"MEAN_ANOMALY":263.8757,"EPHEMERIS_TYPE":0,"NORAD_CAT_ID":49197,"ELEMENT_SET_NO":999,"REV_AT_EPOCH":23563,"BSTAR":-0.00068587951,"MEAN_MOTION_DOT":-0.00000238,"MEAN_MOTION_DDOT":0},{"OBJECT_NAME":"ONEWEB-0331","OBJECT_ID":"2021-083N","EPOCH":"2026-07-22T19:24:54.859392","CLASSIFICATION_TYPE":"U","MEAN_MOTION":13.18686352,"ECCENTRICITY":0.00016218,"INCLINATION":87.9204,"RA_OF_ASC_NODE":328.3685,"ARG_OF_PERICENTER":92.3916,"MEAN_ANOMALY":267.7402,"EPHEMERIS_TYPE":0,"NORAD_CAT_ID":49198,"ELEMENT_SET_NO":999,"REV_AT_EPOCH":23470,"BSTAR":0.000032420015,"MEAN_MOTION_DOT":2.6e-7,"MEAN_MOTION_DDOT":0},{"OBJECT_NAME":"ONEWEB-0333","OBJECT_ID":"2021-083P","EPOCH":"2026-07-22T17:09:44.769600","CLASSIFICATION_TYPE":"U","MEAN_MOTION":13.13469758,"ECCENTRICITY":0.00019201,"INCLINATION":87.8981,"RA_OF_ASC_NODE":313.1655,"ARG_OF_PERICENTER":101.1642,"MEAN_ANOMALY":258.9703,"EPHEMERIS_TYPE":0,"NORAD_CAT_ID":49199,"ELEMENT_SET_NO":999,"REV_AT_EPOCH":23557,"BSTAR":-0.00086788371,"MEAN_MOTION_DOT":-0.00000304,"MEAN_MOTION_DDOT":0},{"OBJECT_NAME":"ONEWEB-0334","OBJECT_ID":"2021-083Q","EPOCH":"2026-07-23T04:47:45.132288","CLASSIFICATION_TYPE":"U","MEAN_MOTION":13.20770207,"ECCENTRICITY":0.00026657,"INCLINATION":87.9177,"RA_OF_ASC_NODE":267.2684,"ARG_OF_PERICENTER":110.9514,"MEAN_ANOMALY":249.1904,"EPHEMERIS_TYPE":0,"NORAD_CAT_ID":49200,"ELEMENT_SET_NO":999,"REV_AT_EPOCH":24154,"BSTAR":0.00022732046,"MEAN_MOTION_DOT":0.00000105,"MEAN_MOTION_DDOT":0}]}
